{
"type": "FeatureCollection",
"name": "poc",
"crs": { "type": "name", "properties": { "name": "urn:ogc:def:crs:OGC:1.3:CRS84" } },
"features": [
{ "type": "Feature", "properties": { "fid": 52 }, "geometry": { "type": "Polygon", "coordinates": [ [ [ -7.649652824819384, -180.823916303183296 ], [ -7.649652824819384, -180.823916303183296 ], [ 124.733744381057249, -405.875691553173624 ], [ 340.959959817322442, -560.322988293363096 ], [ 614.552314042800958, -692.706385499239786 ], [ 914.621347709454767, -683.880825685514651 ], [ 1223.515941189833484, -617.689127082576306 ], [ 1439.742156626098676, -344.096772857097847 ], [ 1550.061654297662699, -255.841174719846776 ], [ 1669.206711782951515, -198.475035930633567 ], [ 1550.061654297662699, 8.925619691906562 ], [ 1.175906988905723, 13.338399598769115 ], [ -7.649652824819384, -180.823916303183296 ] ] ] } },
{ "type": "Feature", "properties": { "fid": 46 }, "geometry": { "type": "Polygon", "coordinates": [ [ [ 2670.907750640751601, -4.312720028681113 ], [ 2679.73331045447685, -286.730634067884637 ], [ 2512.047673993699846, -344.096772857097847 ], [ 2379.664276787822928, -291.143413974747205 ], [ 2110.48470246920715, -388.22457192572341 ], [ 1986.926865077055481, -229.364495278671427 ], [ 1876.607367405491914, -224.951715371808859 ], [ 1748.636750106477621, -304.381753695334851 ], [ 1673.61949168981414, -211.713375651221213 ], [ 1576.538333738837991, -8.725499935543667 ], [ 2670.907750640751601, -4.312720028681113 ] ] ] } },
{ "type": "Feature", "properties": { "fid": 42 }, "geometry": { "type": "Polygon", "coordinates": [ [ [ 2666.494970733889204, 0.10005987818144 ], [ 2675.320530547613998, -286.730634067884637 ], [ 2922.436205331917336, -326.445653229647633 ], [ 3368.126975925035367, -591.212447641401013 ], [ 3553.46373201326287, -723.59584484727759 ], [ 3813.817746518153399, -339.683992950235336 ], [ 3438.731454434836451, 8.925619691906562 ], [ 2666.494970733889204, 0.10005987818144 ] ] ] } },
{ "type": "Feature", "properties": { "fid": 40 }, "geometry": { "type": "Polygon", "coordinates": [ [ [ 3456.382574062286494, 0.10005987818144 ], [ 3827.056086238741045, -357.33511257768555 ], [ 4546.339211057336797, -569.148548107088232 ], [ 4639.007589101451231, -480.892949969837105 ], [ 4766.978206400464842, -414.701251366898759 ], [ 4886.123263885754568, -370.573452298273196 ], [ 4886.123263885754568, 4.512839785044008 ], [ 3456.382574062286494, 0.10005987818144 ] ] ] } },
{ "type": "Feature", "properties": { "fid": 48 }, "geometry": { "type": "Polygon", "coordinates": [ [ [ 954.336366871217706, -679.468045778652026 ], [ 954.336366871217706, -692.706385499239786 ], [ 954.336366871217706, -701.531945312964808 ], [ 954.336366871217706, -710.357505126689944 ], [ 954.336366871217706, -719.183064940415079 ], [ 949.923586964355081, -728.008624754140214 ], [ 949.923586964355081, -736.834184567865236 ], [ 941.09802715063006, -745.659744381590372 ], [ 936.685247243767435, -754.485304195315507 ], [ 927.859687430042413, -763.310864009040642 ], [ 919.034127616317164, -772.136423822765778 ], [ 910.208567802592142, -780.9619836364908 ], [ 905.795787895729518, -789.787543450215935 ], [ 901.383007988866893, -798.613103263941071 ], [ 896.970228082004496, -807.438663077666206 ], [ 892.557448175141872, -816.264222891391228 ], [ 883.73188836141685, -825.089782705116363 ], [ 879.319108454554225, -833.915342518841499 ], [ 870.493548640829204, -842.740902332566634 ], [ 866.080768733966579, -851.566462146291769 ], [ 861.667988827103954, -860.392021960016791 ], [ 861.667988827103954, -873.630361680604551 ], [ 861.667988827103954, -882.455921494329573 ], [ 861.667988827103954, -891.281481308054708 ], [ 861.667988827103954, -900.107041121779844 ], [ 861.667988827103954, -908.932600935504979 ], [ 857.255208920241557, -917.758160749230001 ], [ 857.255208920241557, -926.583720562955136 ], [ 852.842429013378933, -935.409280376680272 ], [ 852.842429013378933, -944.234840190405293 ], [ 852.842429013378933, -953.060400004130543 ], [ 852.842429013378933, -961.885959817855564 ], [ 852.842429013378933, -970.711519631580813 ], [ 852.842429013378933, -979.537079445305835 ], [ 852.842429013378933, -988.362639259030857 ], [ 852.842429013378933, -997.188199072756106 ], [ 852.842429013378933, -1006.013758886481128 ], [ 852.842429013378933, -1014.839318700206377 ], [ 852.842429013378933, -1023.664878513931399 ], [ 857.255208920241557, -1032.49043832765642 ], [ 866.080768733966579, -1041.315998141381669 ], [ 874.906328547691601, -1050.141557955106691 ], [ 883.73188836141685, -1054.554337861969316 ], [ 892.557448175141872, -1058.967117768831713 ], [ 896.970228082004496, -1067.792677582556962 ], [ 905.795787895729518, -1067.792677582556962 ], [ 914.621347709454767, -1067.792677582556962 ], [ 923.446907523179789, -1067.792677582556962 ], [ 932.272467336904811, -1067.792677582556962 ], [ 941.09802715063006, -1067.792677582556962 ], [ 949.923586964355081, -1067.792677582556962 ], [ 958.74914677808033, -1072.205457489419587 ], [ 958.74914677808033, -1081.031017303144608 ], [ 958.74914677808033, -1089.85657711686963 ], [ 963.161926684942728, -1098.682136930594879 ], [ 963.161926684942728, -1107.507696744319901 ], [ 971.987486498667977, -1116.33325655804515 ], [ 980.813046312392999, -1125.158816371770172 ], [ 989.63860612611802, -1133.984376185495194 ], [ 998.464165939843269, -1138.397156092357818 ], [ 1007.289725753568291, -1142.809935999220443 ], [ 1011.702505660430916, -1151.635495812945464 ], [ 1020.528065474155937, -1156.048275719808089 ], [ 1029.353625287881187, -1164.873835533533111 ], [ 1038.179185101606208, -1169.286615440395735 ], [ 1047.00474491533123, -1173.69939534725836 ], [ 1055.830304729056479, -1182.524955160983382 ], [ 1064.655864542781501, -1186.937735067846006 ], [ 1073.48142435650675, -1195.763294881571028 ], [ 1082.306984170231772, -1204.58885469529605 ], [ 1086.719764077094396, -1213.414414509021299 ], [ 1095.545323890819418, -1217.827194415883923 ], [ 1104.37088370454444, -1226.652754229608945 ], [ 1113.196443518269689, -1231.06553413647157 ], [ 1122.022003331994711, -1239.891093950196591 ], [ 1135.260343052582357, -1244.303873857059216 ], [ 1144.085902866307606, -1248.716653763921613 ], [ 1152.911462680032628, -1253.129433670784238 ], [ 1161.737022493757649, -1257.542213577646862 ], [ 1170.562582307482899, -1261.954993484509259 ], [ 1179.38814212120792, -1261.954993484509259 ], [ 1188.213701934933169, -1266.367773391371884 ], [ 1197.039261748658191, -1275.193333205097133 ], [ 1201.452041655520816, -1284.018893018822155 ], [ 1205.864821562383213, -1292.844452832547177 ], [ 1210.277601469245838, -1301.670012646272426 ], [ 1210.277601469245838, -1310.495572459997447 ], [ 1219.103161282971087, -1319.321132273722469 ], [ 1223.515941189833484, -1328.146692087447718 ], [ 1232.341501003558733, -1328.146692087447718 ], [ 1241.167060817283755, -1332.559471994310343 ], [ 1254.405400537871401, -1341.385031808035365 ], [ 1272.056520165321672, -1345.797811714897989 ], [ 1280.882079979046694, -1345.797811714897989 ], [ 1289.707639792771943, -1350.210591621760386 ], [ 1298.533199606496964, -1354.623371528623011 ], [ 1307.358759420221986, -1354.623371528623011 ], [ 1316.184319233947235, -1359.036151435485635 ], [ 1325.009879047672257, -1359.036151435485635 ], [ 1333.835438861397506, -1359.036151435485635 ], [ 1342.660998675122528, -1359.036151435485635 ], [ 1351.48655848884755, -1359.036151435485635 ], [ 1360.312118302572799, -1359.036151435485635 ], [ 1369.13767811629782, -1359.036151435485635 ], [ 1377.96323793002307, -1359.036151435485635 ], [ 1386.788797743748091, -1354.623371528623011 ], [ 1395.614357557473113, -1354.623371528623011 ], [ 1404.439917371198362, -1350.210591621760386 ], [ 1413.265477184923384, -1345.797811714897989 ], [ 1422.091036998648633, -1345.797811714897989 ], [ 1430.916596812373655, -1345.797811714897989 ], [ 1439.742156626098676, -1345.797811714897989 ], [ 1448.567716439823926, -1341.385031808035365 ], [ 1457.393276253548947, -1341.385031808035365 ], [ 1466.218836067273969, -1341.385031808035365 ], [ 1479.457175787861843, -1341.385031808035365 ], [ 1492.695515508449489, -1341.385031808035365 ], [ 1501.521075322174511, -1341.385031808035365 ], [ 1510.346635135899533, -1341.385031808035365 ], [ 1519.172194949624782, -1341.385031808035365 ], [ 1527.997754763349803, -1341.385031808035365 ], [ 1536.823314577075053, -1341.385031808035365 ], [ 1545.648874390800074, -1341.385031808035365 ], [ 1554.474434204525096, -1341.385031808035365 ], [ 1563.299994018250345, -1341.385031808035365 ], [ 1572.125553831975367, -1341.385031808035365 ], [ 1580.951113645700616, -1341.385031808035365 ], [ 1589.776673459425638, -1341.385031808035365 ], [ 1598.602233273150659, -1341.385031808035365 ], [ 1611.840572993738306, -1341.385031808035365 ], [ 1620.666132807463555, -1336.97225190117274 ], [ 1629.491692621188577, -1328.146692087447718 ], [ 1638.317252434913826, -1323.733912180585094 ], [ 1647.142812248638847, -1314.908352366860072 ], [ 1651.555592155501472, -1306.082792553134823 ], [ 1655.968372062363869, -1297.257232739409801 ], [ 1660.381151969226494, -1288.431672925684779 ], [ 1660.381151969226494, -1279.60611311195953 ], [ 1660.381151969226494, -1270.780553298234508 ], [ 1660.381151969226494, -1261.954993484509259 ], [ 1660.381151969226494, -1253.129433670784238 ], [ 1660.381151969226494, -1244.303873857059216 ], [ 1660.381151969226494, -1235.478314043333967 ], [ 1660.381151969226494, -1226.652754229608945 ], [ 1660.381151969226494, -1217.827194415883923 ], [ 1660.381151969226494, -1209.001634602158674 ], [ 1660.381151969226494, -1200.176074788433652 ], [ 1660.381151969226494, -1191.350514974708403 ], [ 1669.206711782951515, -1182.524955160983382 ], [ 1673.61949168981414, -1169.286615440395735 ], [ 1682.445051503539389, -1160.461055626670486 ], [ 1691.270611317264411, -1151.635495812945464 ], [ 1700.096171130989433, -1147.22271590608284 ], [ 1708.921730944714682, -1142.809935999220443 ], [ 1717.747290758439703, -1138.397156092357818 ], [ 1726.572850572164953, -1129.571596278632796 ], [ 1735.398410385889974, -1125.158816371770172 ], [ 1744.223970199614996, -1125.158816371770172 ], [ 1753.049530013340245, -1125.158816371770172 ], [ 1761.875089827065267, -1120.746036464907547 ], [ 1770.700649640790289, -1120.746036464907547 ], [ 1779.526209454515538, -1120.746036464907547 ], [ 1788.35176926824056, -1120.746036464907547 ], [ 1797.177329081965809, -1120.746036464907547 ], [ 1806.00288889569083, -1120.746036464907547 ], [ 1819.241228616278477, -1120.746036464907547 ], [ 1828.066788430003726, -1120.746036464907547 ], [ 1836.89234824372852, -1120.746036464907547 ], [ 1845.717908057453769, -1120.746036464907547 ], [ 1854.543467871179018, -1120.746036464907547 ], [ 1863.369027684904268, -1120.746036464907547 ], [ 1876.607367405491914, -1120.746036464907547 ], [ 1885.432927219216708, -1116.33325655804515 ], [ 1894.258487032941957, -1116.33325655804515 ], [ 1903.084046846667206, -1111.920476651182526 ], [ 1911.909606660392001, -1107.507696744319901 ], [ 1920.73516647411725, -1107.507696744319901 ], [ 1929.560726287842499, -1098.682136930594879 ], [ 1938.386286101567293, -1094.269357023732255 ], [ 1947.211845915292542, -1085.443797210007233 ], [ 1956.037405729017792, -1081.031017303144608 ], [ 1964.862965542743041, -1072.205457489419587 ], [ 1973.688525356467835, -1063.379897675694338 ], [ 1982.514085170193084, -1054.554337861969316 ], [ 1986.926865077055481, -1045.728778048244067 ], [ 1986.926865077055481, -1036.903218234519045 ], [ 1978.101305263330687, -1023.664878513931399 ], [ 1969.275745449605438, -1019.252098607068774 ], [ 1960.450185635880189, -1014.839318700206377 ], [ 1951.62462582215494, -1014.839318700206377 ], [ 1942.799066008430145, -1010.426538793343752 ], [ 1933.973506194704896, -1010.426538793343752 ], [ 1925.147946380979647, -1006.013758886481128 ], [ 1916.322386567254853, -1001.600978979618503 ], [ 1907.496826753529604, -1001.600978979618503 ], [ 1898.671266939804354, -997.188199072756106 ], [ 1889.84570712607956, -992.775419165893481 ], [ 1881.020147312354311, -992.775419165893481 ], [ 1872.194587498629062, -992.775419165893481 ], [ 1863.369027684904268, -983.94985935216846 ], [ 1854.543467871179018, -979.537079445305835 ], [ 1845.717908057453769, -970.711519631580813 ], [ 1841.305128150591372, -961.885959817855564 ], [ 1832.479568336866123, -957.47317991099294 ], [ 1823.654008523140874, -953.060400004130543 ], [ 1814.82844870941608, -948.647620097267918 ], [ 1806.00288889569083, -948.647620097267918 ], [ 1797.177329081965809, -948.647620097267918 ], [ 1788.35176926824056, -944.234840190405293 ], [ 1779.526209454515538, -944.234840190405293 ], [ 1770.700649640790289, -944.234840190405293 ], [ 1761.875089827065267, -944.234840190405293 ], [ 1753.049530013340245, -944.234840190405293 ], [ 1744.223970199614996, -944.234840190405293 ], [ 1735.398410385889974, -944.234840190405293 ], [ 1726.572850572164953, -944.234840190405293 ], [ 1717.747290758439703, -948.647620097267918 ], [ 1704.508951037852057, -953.060400004130543 ], [ 1691.270611317264411, -957.47317991099294 ], [ 1682.445051503539389, -961.885959817855564 ], [ 1673.61949168981414, -966.298739724718189 ], [ 1664.793931876089118, -966.298739724718189 ], [ 1655.968372062363869, -966.298739724718189 ], [ 1647.142812248638847, -970.711519631580813 ], [ 1638.317252434913826, -970.711519631580813 ], [ 1629.491692621188577, -975.124299538443211 ], [ 1616.25335290060093, -975.124299538443211 ], [ 1607.427793086875909, -979.537079445305835 ], [ 1598.602233273150659, -979.537079445305835 ], [ 1589.776673459425638, -979.537079445305835 ], [ 1580.951113645700616, -979.537079445305835 ], [ 1572.125553831975367, -979.537079445305835 ], [ 1563.299994018250345, -979.537079445305835 ], [ 1554.474434204525096, -979.537079445305835 ], [ 1545.648874390800074, -979.537079445305835 ], [ 1536.823314577075053, -979.537079445305835 ], [ 1527.997754763349803, -975.124299538443211 ], [ 1519.172194949624782, -975.124299538443211 ], [ 1510.346635135899533, -970.711519631580813 ], [ 1501.521075322174511, -961.885959817855564 ], [ 1492.695515508449489, -957.47317991099294 ], [ 1483.86995569472424, -953.060400004130543 ], [ 1475.044395880999218, -948.647620097267918 ], [ 1466.218836067273969, -944.234840190405293 ], [ 1457.393276253548947, -935.409280376680272 ], [ 1448.567716439823926, -930.996500469817761 ], [ 1439.742156626098676, -926.583720562955136 ], [ 1430.916596812373655, -922.170940656092625 ], [ 1422.091036998648633, -913.34538084236749 ], [ 1417.678257091786008, -904.519821028642355 ], [ 1413.265477184923384, -895.694261214917333 ], [ 1408.852697278060759, -886.868701401192197 ], [ 1404.439917371198362, -878.043141587467062 ], [ 1400.027137464335738, -869.217581773741927 ], [ 1400.027137464335738, -860.392021960016791 ], [ 1395.614357557473113, -851.566462146291769 ], [ 1395.614357557473113, -842.740902332566634 ], [ 1391.201577650610716, -833.915342518841499 ], [ 1391.201577650610716, -825.089782705116363 ], [ 1382.376017836885467, -816.264222891391228 ], [ 1382.376017836885467, -807.438663077666206 ], [ 1377.96323793002307, -798.613103263941071 ], [ 1373.550458023160445, -789.787543450215935 ], [ 1369.13767811629782, -780.9619836364908 ], [ 1369.13767811629782, -772.136423822765778 ], [ 1364.724898209435196, -763.310864009040642 ], [ 1360.312118302572799, -754.485304195315507 ], [ 1360.312118302572799, -745.659744381590372 ], [ 1355.899338395710174, -736.834184567865236 ], [ 1351.48655848884755, -728.008624754140214 ], [ 1342.660998675122528, -723.59584484727759 ], [ 1342.660998675122528, -714.770285033552454 ], [ 1333.835438861397506, -710.357505126689944 ], [ 1333.835438861397506, -701.531945312964808 ], [ 1325.009879047672257, -701.531945312964808 ], [ 1325.009879047672257, -692.706385499239786 ], [ 1316.184319233947235, -692.706385499239786 ], [ 1311.771539327084611, -683.880825685514651 ], [ 1302.945979513359589, -683.880825685514651 ], [ 1294.12041969963434, -675.055265871789516 ], [ 1285.294859885909318, -666.22970605806438 ], [ 1276.469300072184296, -657.404146244339245 ], [ 1267.643740258459047, -648.578586430614223 ], [ 1258.818180444734026, -644.165806523751598 ], [ 1249.992620631008776, -635.340246710026463 ], [ 1241.167060817283755, -635.340246710026463 ], [ 1232.341501003558733, -635.340246710026463 ], [ 1223.515941189833484, -635.340246710026463 ], [ 1214.690381376108462, -635.340246710026463 ], [ 1205.864821562383213, -635.340246710026463 ], [ 1197.039261748658191, -639.753026616889088 ], [ 1188.213701934933169, -639.753026616889088 ], [ 1179.38814212120792, -644.165806523751598 ], [ 1170.562582307482899, -648.578586430614223 ], [ 1161.737022493757649, -648.578586430614223 ], [ 1152.911462680032628, -657.404146244339245 ], [ 1144.085902866307606, -666.22970605806438 ], [ 1139.673122959444981, -675.055265871789516 ], [ 1135.260343052582357, -666.22970605806438 ], [ 1135.260343052582357, -657.404146244339245 ], [ 954.336366871217706, -679.468045778652026 ] ] ] } },
{ "type": "Feature", "properties": { "fid": 51 }, "geometry": { "type": "Polygon", "coordinates": [ [ [ 1.175906988905723, -202.887815837496078 ], [ 1.175906988905723, -211.713375651221213 ], [ 1.175906988905723, -220.538935464946292 ], [ 10.00146680263083, -229.364495278671427 ], [ 14.414246709493398, -238.190055092396562 ], [ 14.414246709493398, -247.015614906121641 ], [ 14.414246709493398, -255.841174719846776 ], [ 14.414246709493398, -264.666734533571855 ], [ 14.414246709493398, -273.492294347296991 ], [ 14.414246709493398, -282.317854161022069 ], [ 14.414246709493398, -291.143413974747205 ], [ 14.414246709493398, -299.96897378847234 ], [ 10.00146680263083, -308.794533602197419 ], [ 1.175906988905723, -313.207313509059986 ], [ -3.236872917956816, -322.032873322785065 ], [ -7.649652824819384, -330.8584331365102 ], [ -12.062432731681952, -339.683992950235336 ], [ -12.062432731681952, -348.509552763960414 ], [ -12.062432731681952, -357.33511257768555 ], [ -12.062432731681952, -366.160672391410628 ], [ -12.062432731681952, -374.986232205135764 ], [ -12.062432731681952, -383.811792018860842 ], [ -12.062432731681952, -392.637351832585978 ], [ -12.062432731681952, -401.462911646311113 ], [ -7.649652824819384, -410.288471460036192 ], [ -7.649652824819384, -419.114031273761327 ], [ -3.236872917956816, -427.939591087486406 ], [ 1.175906988905723, -436.765150901211541 ], [ 5.588686895768291, -450.003490621799187 ], [ 5.588686895768291, -458.829050435524323 ], [ 5.588686895768291, -467.654610249249458 ], [ 5.588686895768291, -476.48017006297448 ], [ 5.588686895768291, -489.71850978356224 ], [ 5.588686895768291, -502.956849504149886 ], [ 5.588686895768291, -511.782409317875022 ], [ 5.588686895768291, -520.607969131600044 ], [ 5.588686895768291, -529.433528945325179 ], [ 5.588686895768291, -538.259088759050314 ], [ 5.588686895768291, -551.497428479637961 ], [ 5.588686895768291, -560.322988293363096 ], [ 5.588686895768291, -573.561328013950742 ], [ 1.175906988905723, -586.799667734538389 ], [ 1.175906988905723, -600.038007455126035 ], [ -3.236872917956816, -608.86356726885117 ], [ -3.236872917956816, -617.689127082576306 ], [ -3.236872917956816, -626.514686896301441 ], [ -3.236872917956816, -639.753026616889088 ], [ -3.236872917956816, -652.991366337476734 ], [ -3.236872917956816, -666.22970605806438 ], [ -3.236872917956816, -675.055265871789516 ], [ -3.236872917956816, -688.293605592377162 ], [ -3.236872917956816, -701.531945312964808 ], [ -3.236872917956816, -710.357505126689944 ], [ -3.236872917956816, -719.183064940415079 ], [ -3.236872917956816, -728.008624754140214 ], [ -3.236872917956816, -736.834184567865236 ], [ -3.236872917956816, -750.072524288452996 ], [ -3.236872917956816, -767.723643915903153 ], [ -3.236872917956816, -780.9619836364908 ], [ -3.236872917956816, -794.20032335707856 ], [ -3.236872917956816, -807.438663077666206 ], [ -3.236872917956816, -816.264222891391228 ], [ -3.236872917956816, -825.089782705116363 ], [ -3.236872917956816, -833.915342518841499 ], [ -3.236872917956816, -842.740902332566634 ], [ -3.236872917956816, -851.566462146291769 ], [ -3.236872917956816, -864.804801866879416 ], [ 1.175906988905723, -873.630361680604551 ], [ 1.175906988905723, -882.455921494329573 ], [ 1.175906988905723, -891.281481308054708 ], [ 1.175906988905723, -900.107041121779844 ], [ 5.588686895768291, -913.34538084236749 ], [ 14.414246709493398, -922.170940656092625 ], [ 14.414246709493398, -930.996500469817761 ], [ 18.827026616355965, -939.822060283542896 ], [ 18.827026616355965, -948.647620097267918 ], [ 18.827026616355965, -957.47317991099294 ], [ 23.239806523218476, -966.298739724718189 ], [ 23.239806523218476, -975.124299538443211 ], [ 23.239806523218476, -983.94985935216846 ], [ 23.239806523218476, -992.775419165893481 ], [ 23.239806523218476, -1001.600978979618503 ], [ 23.239806523218476, -1010.426538793343752 ], [ 23.239806523218476, -1019.252098607068774 ], [ 18.827026616355965, -1028.077658420794023 ], [ 10.00146680263083, -1032.49043832765642 ], [ 10.00146680263083, -1041.315998141381669 ], [ 10.00146680263083, -1050.141557955106691 ], [ 10.00146680263083, -1058.967117768831713 ], [ 5.588686895768291, -1067.792677582556962 ], [ 1.175906988905723, -1076.618237396281984 ], [ 10.00146680263083, -1076.618237396281984 ], [ 18.827026616355965, -1076.618237396281984 ], [ 27.652586430081044, -1076.618237396281984 ], [ 36.478146243806179, -1076.618237396281984 ], [ 45.303706057531258, -1076.618237396281984 ], [ 54.129265871256393, -1076.618237396281984 ], [ 62.954825684981472, -1076.618237396281984 ], [ 71.780385498706607, -1076.618237396281984 ], [ 80.605945312431743, -1072.205457489419587 ], [ 89.431505126156821, -1072.205457489419587 ], [ 98.257064939881957, -1067.792677582556962 ], [ 107.082624753607035, -1063.379897675694338 ], [ 115.908184567332171, -1058.967117768831713 ], [ 124.733744381057249, -1050.141557955106691 ], [ 133.559304194782385, -1050.141557955106691 ], [ 142.38486400850752, -1041.315998141381669 ], [ 151.210423822232599, -1041.315998141381669 ], [ 160.035983635957734, -1041.315998141381669 ], [ 168.861543449682813, -1036.903218234519045 ], [ 177.687103263407948, -1032.49043832765642 ], [ 186.512663077133027, -1032.49043832765642 ], [ 190.925442983995595, -1023.664878513931399 ], [ 199.75100279772073, -1023.664878513931399 ], [ 208.576562611445809, -1014.839318700206377 ], [ 217.402122425170944, -1010.426538793343752 ], [ 226.227682238896023, -1010.426538793343752 ], [ 235.053242052621158, -1006.013758886481128 ], [ 243.878801866346294, -1001.600978979618503 ], [ 248.291581773208804, -992.775419165893481 ], [ 257.11714158693394, -983.94985935216846 ], [ 257.11714158693394, -975.124299538443211 ], [ 261.529921493796508, -966.298739724718189 ], [ 265.942701400659075, -957.47317991099294 ], [ 270.355481307521586, -948.647620097267918 ], [ 279.181041121246722, -944.234840190405293 ], [ 283.593821028109232, -935.409280376680272 ], [ 292.419380841834368, -935.409280376680272 ], [ 301.244940655559503, -930.996500469817761 ], [ 310.070500469284639, -926.583720562955136 ], [ 318.89606028300966, -926.583720562955136 ], [ 327.721620096734796, -926.583720562955136 ], [ 340.959959817322442, -926.583720562955136 ], [ 354.198299537910202, -926.583720562955136 ], [ 367.436639258497848, -926.583720562955136 ], [ 385.087758885948006, -926.583720562955136 ], [ 393.913318699673141, -926.583720562955136 ], [ 402.738878513398276, -926.583720562955136 ], [ 411.564438327123412, -926.583720562955136 ], [ 424.802778047711058, -926.583720562955136 ], [ 433.628337861436194, -926.583720562955136 ], [ 451.279457488886351, -930.996500469817761 ], [ 468.930577116336622, -935.409280376680272 ], [ 482.168916836924268, -939.822060283542896 ], [ 495.407256557511914, -944.234840190405293 ], [ 504.23281637123705, -948.647620097267918 ], [ 517.471156091824696, -948.647620097267918 ], [ 526.296715905549831, -948.647620097267918 ], [ 535.122275719274967, -953.060400004130543 ], [ 543.947835532999989, -953.060400004130543 ], [ 552.773395346725124, -957.47317991099294 ], [ 561.598955160450259, -961.885959817855564 ], [ 570.424514974175395, -961.885959817855564 ], [ 579.250074787900417, -961.885959817855564 ], [ 592.488414508488177, -961.885959817855564 ], [ 605.726754229075823, -966.298739724718189 ], [ 614.552314042800958, -970.711519631580813 ], [ 623.37787385652598, -979.537079445305835 ], [ 632.203433670251115, -983.94985935216846 ], [ 645.441773390838762, -992.775419165893481 ], [ 654.267333204563897, -1001.600978979618503 ], [ 667.505672925151543, -1010.426538793343752 ], [ 676.331232738876679, -1014.839318700206377 ], [ 680.74401264573919, -1023.664878513931399 ], [ 680.74401264573919, -1032.49043832765642 ], [ 680.74401264573919, -1041.315998141381669 ], [ 680.74401264573919, -1050.141557955106691 ], [ 680.74401264573919, -1058.967117768831713 ], [ 685.156792552601814, -1067.792677582556962 ], [ 685.156792552601814, -1076.618237396281984 ], [ 693.98235236632695, -1081.031017303144608 ], [ 702.807912180051972, -1089.85657711686963 ], [ 711.633471993777107, -1089.85657711686963 ], [ 716.046251900639732, -1098.682136930594879 ], [ 724.871811714364753, -1098.682136930594879 ], [ 733.697371528089889, -1103.094916837457276 ], [ 742.522931341815024, -1107.507696744319901 ], [ 751.34849115554016, -1111.920476651182526 ], [ 760.174050969265181, -1111.920476651182526 ], [ 768.999610782990317, -1116.33325655804515 ], [ 782.237950503578077, -1120.746036464907547 ], [ 791.063510317303098, -1125.158816371770172 ], [ 799.88907013102812, -1125.158816371770172 ], [ 813.127409851615994, -1125.158816371770172 ], [ 821.952969665341016, -1125.158816371770172 ], [ 830.778529479066037, -1125.158816371770172 ], [ 839.604089292791286, -1125.158816371770172 ], [ 848.429649106516308, -1125.158816371770172 ], [ 857.255208920241557, -1120.746036464907547 ], [ 866.080768733966579, -1116.33325655804515 ], [ 870.493548640829204, -1107.507696744319901 ], [ 879.319108454554225, -1098.682136930594879 ], [ 883.73188836141685, -1089.85657711686963 ], [ 883.73188836141685, -1081.031017303144608 ], [ 883.73188836141685, -1072.205457489419587 ], [ 883.73188836141685, -1063.379897675694338 ], [ 883.73188836141685, -1054.554337861969316 ], [ 883.73188836141685, -1045.728778048244067 ], [ 883.73188836141685, -1036.903218234519045 ], [ 879.319108454554225, -1028.077658420794023 ], [ 870.493548640829204, -1019.252098607068774 ], [ 866.080768733966579, -1010.426538793343752 ], [ 857.255208920241557, -1006.013758886481128 ], [ 852.842429013378933, -997.188199072756106 ], [ 852.842429013378933, -988.362639259030857 ], [ 852.842429013378933, -979.537079445305835 ], [ 852.842429013378933, -970.711519631580813 ], [ 852.842429013378933, -961.885959817855564 ], [ 852.842429013378933, -953.060400004130543 ], [ 848.429649106516308, -944.234840190405293 ], [ 848.429649106516308, -935.409280376680272 ], [ 848.429649106516308, -926.583720562955136 ], [ 848.429649106516308, -917.758160749230001 ], [ 848.429649106516308, -908.932600935504979 ], [ 848.429649106516308, -900.107041121779844 ], [ 848.429649106516308, -891.281481308054708 ], [ 848.429649106516308, -882.455921494329573 ], [ 848.429649106516308, -873.630361680604551 ], [ 848.429649106516308, -864.804801866879416 ], [ 848.429649106516308, -855.97924205315428 ], [ 848.429649106516308, -847.153682239429145 ], [ 848.429649106516308, -838.328122425704009 ], [ 848.429649106516308, -829.502562611978988 ], [ 852.842429013378933, -820.677002798253852 ], [ 857.255208920241557, -811.851442984528717 ], [ 866.080768733966579, -803.025883170803581 ], [ 874.906328547691601, -798.613103263941071 ], [ 883.73188836141685, -789.787543450215935 ], [ 888.144668268279247, -780.9619836364908 ], [ 892.557448175141872, -772.136423822765778 ], [ 901.383007988866893, -763.310864009040642 ], [ 905.795787895729518, -754.485304195315507 ], [ 914.621347709454767, -745.659744381590372 ], [ 919.034127616317164, -736.834184567865236 ], [ 927.859687430042413, -728.008624754140214 ], [ 932.272467336904811, -719.183064940415079 ], [ 923.446907523179789, -714.770285033552454 ], [ 914.621347709454767, -714.770285033552454 ], [ 905.795787895729518, -714.770285033552454 ], [ 896.970228082004496, -714.770285033552454 ], [ 888.144668268279247, -714.770285033552454 ], [ 874.906328547691601, -714.770285033552454 ], [ 866.080768733966579, -714.770285033552454 ], [ 857.255208920241557, -714.770285033552454 ], [ 844.016869199653684, -714.770285033552454 ], [ 830.778529479066037, -714.770285033552454 ], [ 817.540189758478391, -714.770285033552454 ], [ 804.301850037890745, -714.770285033552454 ], [ 795.476290224165723, -714.770285033552454 ], [ 782.237950503578077, -714.770285033552454 ], [ 773.412390689852941, -714.770285033552454 ], [ 760.174050969265181, -714.770285033552454 ], [ 751.34849115554016, -714.770285033552454 ], [ 742.522931341815024, -714.770285033552454 ], [ 733.697371528089889, -714.770285033552454 ], [ 724.871811714364753, -714.770285033552454 ], [ 716.046251900639732, -710.357505126689944 ], [ 707.220692086914596, -710.357505126689944 ], [ 698.395132273189461, -710.357505126689944 ], [ 689.569572459464325, -710.357505126689944 ], [ 680.74401264573919, -710.357505126689944 ], [ 671.918452832014168, -710.357505126689944 ], [ 663.092893018289033, -705.944725219827433 ], [ 654.267333204563897, -705.944725219827433 ], [ 645.441773390838762, -705.944725219827433 ], [ 636.61621357711374, -705.944725219827433 ], [ 627.790653763388605, -705.944725219827433 ], [ 618.965093949663469, -705.944725219827433 ], [ 610.139534135938334, -705.944725219827433 ], [ 601.313974322213198, -705.944725219827433 ], [ 592.488414508488177, -701.531945312964808 ], [ 583.662854694763041, -697.119165406102297 ], [ 574.837294881037906, -697.119165406102297 ], [ 566.01173506731277, -688.293605592377162 ], [ 557.186175253587635, -688.293605592377162 ], [ 543.947835532999989, -683.880825685514651 ], [ 535.122275719274967, -679.468045778652026 ], [ 526.296715905549831, -675.055265871789516 ], [ 517.471156091824696, -670.642485964927005 ], [ 513.058376184962185, -661.816926151201869 ], [ 504.23281637123705, -661.816926151201869 ], [ 495.407256557511914, -652.991366337476734 ], [ 486.581696743786779, -644.165806523751598 ], [ 473.343357023199133, -635.340246710026463 ], [ 464.517797209473997, -635.340246710026463 ], [ 451.279457488886351, -626.514686896301441 ], [ 442.453897675161215, -622.101906989438817 ], [ 433.628337861436194, -617.689127082576306 ], [ 424.802778047711058, -608.86356726885117 ], [ 411.564438327123412, -604.45078736198866 ], [ 398.326098606535652, -595.625227548263524 ], [ 389.50053879281063, -591.212447641401013 ], [ 385.087758885948006, -582.386887827675878 ], [ 376.26219907222287, -577.974107920813253 ], [ 367.436639258497848, -569.148548107088232 ], [ 358.611079444772713, -564.735768200225607 ], [ 354.198299537910202, -555.910208386500472 ], [ 345.372739724185067, -551.497428479637961 ], [ 336.547179910459931, -547.08464857277545 ], [ 327.721620096734796, -542.671868665912825 ], [ 318.89606028300966, -542.671868665912825 ], [ 310.070500469284639, -542.671868665912825 ], [ 301.244940655559503, -533.84630885218769 ], [ 292.419380841834368, -533.84630885218769 ], [ 283.593821028109232, -525.020749038462668 ], [ 274.768261214384097, -520.607969131600044 ], [ 261.529921493796508, -511.782409317875022 ], [ 252.704361680071372, -507.369629411012397 ], [ 248.291581773208804, -498.544069597287262 ], [ 239.466021959483726, -498.544069597287262 ], [ 230.64046214575859, -489.71850978356224 ], [ 221.814902332033512, -489.71850978356224 ], [ 212.989342518308376, -485.305729876699615 ], [ 208.576562611445809, -476.48017006297448 ], [ 199.75100279772073, -472.067390156111969 ], [ 190.925442983995595, -463.241830342386834 ], [ 182.099883170270516, -454.416270528661698 ], [ 173.274323356545381, -450.003490621799187 ], [ 164.448763542820245, -445.590710714936677 ], [ 155.623203729095167, -441.177930808074052 ], [ 146.797643915370031, -432.352370994348917 ], [ 146.797643915370031, -423.526811180623895 ], [ 142.38486400850752, -414.701251366898759 ], [ 137.972084101644953, -405.875691553173624 ], [ 129.146524287919817, -401.462911646311113 ], [ 124.733744381057249, -388.22457192572341 ], [ 115.908184567332171, -379.399012111998331 ], [ 111.495404660469603, -370.573452298273196 ], [ 102.669844846744468, -361.747892484548061 ], [ 98.257064939881957, -352.922332670822982 ], [ 89.431505126156821, -352.922332670822982 ], [ 89.431505126156821, -344.096772857097847 ], [ 80.605945312431743, -339.683992950235336 ], [ 76.193165405569175, -330.8584331365102 ], [ 67.36760559184404, -326.445653229647633 ], [ 58.542045778118961, -317.620093415922554 ], [ 54.129265871256393, -308.794533602197419 ], [ 45.303706057531258, -299.96897378847234 ], [ 40.890926150668747, -291.143413974747205 ], [ 32.065366336943612, -282.317854161022069 ], [ 27.652586430081044, -273.492294347296991 ], [ 18.827026616355965, -269.079514440434423 ], [ 14.414246709493398, -260.253954626709287 ], [ 10.00146680263083, -251.428394812984209 ], [ 1.175906988905723, -202.887815837496078 ] ] ] } },
{ "type": "Feature", "properties": { "fid": 47 }, "geometry": { "type": "Polygon", "coordinates": [ [ [ 1311.771539327084611, -644.165806523751598 ], [ 1311.771539327084611, -652.991366337476734 ], [ 1320.59709914080986, -657.404146244339245 ], [ 1325.009879047672257, -670.642485964927005 ], [ 1333.835438861397506, -675.055265871789516 ], [ 1333.835438861397506, -683.880825685514651 ], [ 1342.660998675122528, -692.706385499239786 ], [ 1347.073778581985152, -701.531945312964808 ], [ 1355.899338395710174, -710.357505126689944 ], [ 1364.724898209435196, -719.183064940415079 ], [ 1373.550458023160445, -723.59584484727759 ], [ 1382.376017836885467, -728.008624754140214 ], [ 1386.788797743748091, -736.834184567865236 ], [ 1391.201577650610716, -745.659744381590372 ], [ 1391.201577650610716, -754.485304195315507 ], [ 1391.201577650610716, -763.310864009040642 ], [ 1391.201577650610716, -772.136423822765778 ], [ 1395.614357557473113, -780.9619836364908 ], [ 1400.027137464335738, -789.787543450215935 ], [ 1404.439917371198362, -798.613103263941071 ], [ 1408.852697278060759, -807.438663077666206 ], [ 1413.265477184923384, -816.264222891391228 ], [ 1413.265477184923384, -825.089782705116363 ], [ 1413.265477184923384, -833.915342518841499 ], [ 1413.265477184923384, -842.740902332566634 ], [ 1413.265477184923384, -851.566462146291769 ], [ 1413.265477184923384, -860.392021960016791 ], [ 1413.265477184923384, -869.217581773741927 ], [ 1413.265477184923384, -878.043141587467062 ], [ 1413.265477184923384, -886.868701401192197 ], [ 1422.091036998648633, -891.281481308054708 ], [ 1426.50381690551103, -900.107041121779844 ], [ 1435.329376719236279, -904.519821028642355 ], [ 1444.154936532961301, -908.932600935504979 ], [ 1448.567716439823926, -917.758160749230001 ], [ 1457.393276253548947, -917.758160749230001 ], [ 1466.218836067273969, -922.170940656092625 ], [ 1475.044395880999218, -926.583720562955136 ], [ 1488.282735601586865, -935.409280376680272 ], [ 1497.108295415311886, -939.822060283542896 ], [ 1510.346635135899533, -944.234840190405293 ], [ 1519.172194949624782, -944.234840190405293 ], [ 1527.997754763349803, -948.647620097267918 ], [ 1536.823314577075053, -953.060400004130543 ], [ 1550.061654297662699, -953.060400004130543 ], [ 1558.887214111387721, -953.060400004130543 ], [ 1572.125553831975367, -953.060400004130543 ], [ 1580.951113645700616, -957.47317991099294 ], [ 1589.776673459425638, -957.47317991099294 ], [ 1598.602233273150659, -957.47317991099294 ], [ 1616.25335290060093, -961.885959817855564 ], [ 1625.078912714326179, -961.885959817855564 ], [ 1638.317252434913826, -961.885959817855564 ], [ 1651.555592155501472, -961.885959817855564 ], [ 1660.381151969226494, -961.885959817855564 ], [ 1669.206711782951515, -961.885959817855564 ], [ 1678.032271596676765, -961.885959817855564 ], [ 1686.857831410401786, -961.885959817855564 ], [ 1695.683391224127035, -957.47317991099294 ], [ 1704.508951037852057, -953.060400004130543 ], [ 1708.921730944714682, -944.234840190405293 ], [ 1717.747290758439703, -939.822060283542896 ], [ 1722.160070665302328, -930.996500469817761 ], [ 1730.98563047902735, -930.996500469817761 ], [ 1739.811190292752599, -922.170940656092625 ], [ 1748.636750106477621, -922.170940656092625 ], [ 1757.462309920202642, -922.170940656092625 ], [ 1766.287869733927892, -917.758160749230001 ], [ 1770.700649640790289, -908.932600935504979 ], [ 1779.526209454515538, -900.107041121779844 ], [ 1783.938989361378162, -891.281481308054708 ], [ 1783.938989361378162, -882.455921494329573 ], [ 1783.938989361378162, -873.630361680604551 ], [ 1788.35176926824056, -864.804801866879416 ], [ 1792.764549175103184, -855.97924205315428 ], [ 1792.764549175103184, -847.153682239429145 ], [ 1792.764549175103184, -838.328122425704009 ], [ 1801.590108988828433, -833.915342518841499 ], [ 1801.590108988828433, -825.089782705116363 ], [ 1801.590108988828433, -816.264222891391228 ], [ 1801.590108988828433, -807.438663077666206 ], [ 1801.590108988828433, -798.613103263941071 ], [ 1801.590108988828433, -789.787543450215935 ], [ 1801.590108988828433, -780.9619836364908 ], [ 1801.590108988828433, -772.136423822765778 ], [ 1801.590108988828433, -763.310864009040642 ], [ 1801.590108988828433, -754.485304195315507 ], [ 1801.590108988828433, -745.659744381590372 ], [ 1801.590108988828433, -736.834184567865236 ], [ 1801.590108988828433, -723.59584484727759 ], [ 1801.590108988828433, -714.770285033552454 ], [ 1801.590108988828433, -705.944725219827433 ], [ 1801.590108988828433, -697.119165406102297 ], [ 1806.00288889569083, -688.293605592377162 ], [ 1806.00288889569083, -679.468045778652026 ], [ 1806.00288889569083, -670.642485964927005 ], [ 1806.00288889569083, -661.816926151201869 ], [ 1806.00288889569083, -652.991366337476734 ], [ 1806.00288889569083, -644.165806523751598 ], [ 1810.415668802553228, -635.340246710026463 ], [ 1814.82844870941608, -626.514686896301441 ], [ 1819.241228616278477, -617.689127082576306 ], [ 1828.066788430003726, -608.86356726885117 ], [ 1832.479568336866123, -600.038007455126035 ], [ 1841.305128150591372, -591.212447641401013 ], [ 1850.130687964316166, -582.386887827675878 ], [ 1854.543467871179018, -573.561328013950742 ], [ 1863.369027684904268, -564.735768200225607 ], [ 1872.194587498629062, -560.322988293363096 ], [ 1876.607367405491914, -551.497428479637961 ], [ 1885.432927219216708, -547.08464857277545 ], [ 1894.258487032941957, -542.671868665912825 ], [ 1903.084046846667206, -542.671868665912825 ], [ 1911.909606660392001, -542.671868665912825 ], [ 1920.73516647411725, -538.259088759050314 ], [ 1929.560726287842499, -529.433528945325179 ], [ 1938.386286101567293, -529.433528945325179 ], [ 1947.211845915292542, -525.020749038462668 ], [ 1956.037405729017792, -520.607969131600044 ], [ 1964.862965542743041, -520.607969131600044 ], [ 1973.688525356467835, -520.607969131600044 ], [ 1982.514085170193084, -516.195189224737533 ], [ 1991.339644983918333, -516.195189224737533 ], [ 2000.165204797643128, -516.195189224737533 ], [ 2008.990764611368377, -516.195189224737533 ], [ 2017.816324425093626, -516.195189224737533 ], [ 2026.64188423881842, -516.195189224737533 ], [ 2035.467444052543669, -516.195189224737533 ], [ 2044.293003866268919, -516.195189224737533 ], [ 2053.118563679993713, -520.607969131600044 ], [ 2061.944123493718962, -520.607969131600044 ], [ 2070.769683307444211, -520.607969131600044 ], [ 2079.59524312116946, -520.607969131600044 ], [ 2088.420802934894255, -520.607969131600044 ], [ 2088.420802934894255, -511.782409317875022 ], [ 2088.420802934894255, -502.956849504149886 ], [ 2088.420802934894255, -494.131289690424751 ], [ 2088.420802934894255, -485.305729876699615 ], [ 2092.833582841757107, -472.067390156111969 ], [ 2097.246362748619504, -463.241830342386834 ], [ 2097.246362748619504, -454.416270528661698 ], [ 2101.659142655481901, -445.590710714936677 ], [ 2101.659142655481901, -436.765150901211541 ], [ 2101.659142655481901, -423.526811180623895 ], [ 2101.659142655481901, -414.701251366898759 ], [ 2097.246362748619504, -405.875691553173624 ], [ 2088.420802934894255, -401.462911646311113 ], [ 2079.59524312116946, -397.050131739448545 ], [ 2075.182463214306608, -383.811792018860842 ], [ 2066.356903400581814, -383.811792018860842 ], [ 2057.531343586856565, -374.986232205135764 ], [ 2048.705783773131316, -366.160672391410628 ], [ 2044.293003866268919, -357.33511257768555 ], [ 2039.880223959406067, -348.509552763960414 ], [ 2035.467444052543669, -339.683992950235336 ], [ 2035.467444052543669, -330.8584331365102 ], [ 2026.64188423881842, -322.032873322785065 ], [ 2022.229104331956023, -313.207313509059986 ], [ 2013.403544518230774, -304.381753695334851 ], [ 2004.57798470450598, -295.556193881609772 ], [ 1995.75242489078073, -286.730634067884637 ], [ 1991.339644983918333, -277.905074254159558 ], [ 1982.514085170193084, -277.905074254159558 ], [ 1973.688525356467835, -273.492294347296991 ], [ 1964.862965542743041, -269.079514440434423 ], [ 1956.037405729017792, -264.666734533571855 ], [ 1947.211845915292542, -264.666734533571855 ], [ 1938.386286101567293, -264.666734533571855 ], [ 1933.973506194704896, -255.841174719846776 ], [ 1925.147946380979647, -255.841174719846776 ], [ 1916.322386567254853, -251.428394812984209 ], [ 1903.084046846667206, -247.015614906121641 ], [ 1894.258487032941957, -247.015614906121641 ], [ 1885.432927219216708, -247.015614906121641 ], [ 1876.607367405491914, -247.015614906121641 ], [ 1867.781807591766665, -247.015614906121641 ], [ 1858.956247778041416, -247.015614906121641 ], [ 1845.717908057453769, -251.428394812984209 ], [ 1836.89234824372852, -251.428394812984209 ], [ 1828.066788430003726, -255.841174719846776 ], [ 1819.241228616278477, -255.841174719846776 ], [ 1810.415668802553228, -260.253954626709287 ], [ 1801.590108988828433, -264.666734533571855 ], [ 1797.177329081965809, -273.492294347296991 ], [ 1788.35176926824056, -273.492294347296991 ], [ 1783.938989361378162, -282.317854161022069 ], [ 1775.113429547652913, -291.143413974747205 ], [ 1766.287869733927892, -291.143413974747205 ], [ 1757.462309920202642, -291.143413974747205 ], [ 1748.636750106477621, -295.556193881609772 ], [ 1739.811190292752599, -299.96897378847234 ], [ 1730.98563047902735, -299.96897378847234 ], [ 1722.160070665302328, -299.96897378847234 ], [ 1713.334510851577079, -299.96897378847234 ], [ 1708.921730944714682, -291.143413974747205 ], [ 1700.096171130989433, -286.730634067884637 ], [ 1691.270611317264411, -277.905074254159558 ], [ 1686.857831410401786, -269.079514440434423 ], [ 1682.445051503539389, -260.253954626709287 ], [ 1682.445051503539389, -251.428394812984209 ], [ 1673.61949168981414, -242.602834999259073 ], [ 1669.206711782951515, -233.777275185533995 ], [ 1660.381151969226494, -229.364495278671427 ], [ 1651.555592155501472, -220.538935464946292 ], [ 1642.730032341776223, -220.538935464946292 ], [ 1633.904472528051201, -216.126155558083781 ], [ 1625.078912714326179, -216.126155558083781 ], [ 1616.25335290060093, -216.126155558083781 ], [ 1607.427793086875909, -216.126155558083781 ], [ 1598.602233273150659, -216.126155558083781 ], [ 1589.776673459425638, -220.538935464946292 ], [ 1580.951113645700616, -229.364495278671427 ], [ 1576.538333738837991, -238.190055092396562 ], [ 1567.712773925112742, -247.015614906121641 ], [ 1567.712773925112742, -255.841174719846776 ], [ 1558.887214111387721, -260.253954626709287 ], [ 1558.887214111387721, -269.079514440434423 ], [ 1550.061654297662699, -277.905074254159558 ], [ 1545.648874390800074, -286.730634067884637 ], [ 1541.23609448393745, -295.556193881609772 ], [ 1532.410534670212428, -304.381753695334851 ], [ 1523.584974856487406, -308.794533602197419 ], [ 1514.759415042762157, -317.620093415922554 ], [ 1505.933855229037135, -326.445653229647633 ], [ 1497.108295415311886, -330.8584331365102 ], [ 1488.282735601586865, -335.271213043372768 ], [ 1479.457175787861843, -344.096772857097847 ], [ 1470.631615974136594, -352.922332670822982 ], [ 1461.806056160411572, -361.747892484548061 ], [ 1452.980496346686323, -370.573452298273196 ], [ 1448.567716439823926, -379.399012111998331 ], [ 1439.742156626098676, -383.811792018860842 ], [ 1435.329376719236279, -392.637351832585978 ], [ 1426.50381690551103, -392.637351832585978 ], [ 1426.50381690551103, -401.462911646311113 ], [ 1417.678257091786008, -405.875691553173624 ], [ 1413.265477184923384, -414.701251366898759 ], [ 1408.852697278060759, -423.526811180623895 ], [ 1400.027137464335738, -432.352370994348917 ], [ 1395.614357557473113, -441.177930808074052 ], [ 1386.788797743748091, -450.003490621799187 ], [ 1382.376017836885467, -458.829050435524323 ], [ 1382.376017836885467, -467.654610249249458 ], [ 1373.550458023160445, -476.48017006297448 ], [ 1369.13767811629782, -485.305729876699615 ], [ 1360.312118302572799, -494.131289690424751 ], [ 1355.899338395710174, -502.956849504149886 ], [ 1347.073778581985152, -507.369629411012397 ], [ 1342.660998675122528, -516.195189224737533 ], [ 1333.835438861397506, -525.020749038462668 ], [ 1329.422658954534882, -533.84630885218769 ], [ 1320.59709914080986, -538.259088759050314 ], [ 1316.184319233947235, -547.08464857277545 ], [ 1311.771539327084611, -555.910208386500472 ], [ 1302.945979513359589, -564.735768200225607 ], [ 1298.533199606496964, -573.561328013950742 ], [ 1294.12041969963434, -582.386887827675878 ], [ 1285.294859885909318, -586.799667734538389 ], [ 1280.882079979046694, -600.038007455126035 ], [ 1276.469300072184296, -608.86356726885117 ], [ 1272.056520165321672, -617.689127082576306 ], [ 1280.882079979046694, -622.101906989438817 ], [ 1289.707639792771943, -626.514686896301441 ], [ 1298.533199606496964, -630.927466803163952 ], [ 1307.358759420221986, -630.927466803163952 ], [ 1311.771539327084611, -644.165806523751598 ] ] ] } },
{ "type": "Feature", "properties": { "fid": 44 }, "geometry": { "type": "Polygon", "coordinates": [ [ [ 2481.158214645661701, -1381.100050969798303 ], [ 2481.158214645661701, -1372.274491156073282 ], [ 2481.158214645661701, -1363.448931342348033 ], [ 2481.158214645661701, -1354.623371528623011 ], [ 2472.332654831936907, -1350.210591621760386 ], [ 2463.507095018211658, -1341.385031808035365 ], [ 2454.681535204486408, -1341.385031808035365 ], [ 2445.855975390761159, -1341.385031808035365 ], [ 2437.030415577036365, -1341.385031808035365 ], [ 2428.204855763311116, -1336.97225190117274 ], [ 2423.792075856448719, -1328.146692087447718 ], [ 2419.379295949585867, -1319.321132273722469 ], [ 2414.96651604272347, -1310.495572459997447 ], [ 2410.553736135861072, -1301.670012646272426 ], [ 2410.553736135861072, -1292.844452832547177 ], [ 2401.728176322135823, -1288.431672925684779 ], [ 2401.728176322135823, -1279.60611311195953 ], [ 2392.902616508410574, -1275.193333205097133 ], [ 2388.489836601548177, -1266.367773391371884 ], [ 2384.07705669468578, -1257.542213577646862 ], [ 2384.07705669468578, -1248.716653763921613 ], [ 2384.07705669468578, -1239.891093950196591 ], [ 2384.07705669468578, -1231.06553413647157 ], [ 2384.07705669468578, -1222.23997432274632 ], [ 2384.07705669468578, -1213.414414509021299 ], [ 2384.07705669468578, -1204.58885469529605 ], [ 2384.07705669468578, -1195.763294881571028 ], [ 2384.07705669468578, -1186.937735067846006 ], [ 2384.07705669468578, -1178.112175254120757 ], [ 2384.07705669468578, -1169.286615440395735 ], [ 2384.07705669468578, -1160.461055626670486 ], [ 2384.07705669468578, -1151.635495812945464 ], [ 2384.07705669468578, -1142.809935999220443 ], [ 2384.07705669468578, -1133.984376185495194 ], [ 2379.664276787822928, -1125.158816371770172 ], [ 2370.838716974098134, -1116.33325655804515 ], [ 2366.425937067235282, -1107.507696744319901 ], [ 2362.013157160372884, -1098.682136930594879 ], [ 2362.013157160372884, -1089.85657711686963 ], [ 2362.013157160372884, -1081.031017303144608 ], [ 2362.013157160372884, -1072.205457489419587 ], [ 2362.013157160372884, -1063.379897675694338 ], [ 2362.013157160372884, -1054.554337861969316 ], [ 2353.187597346647635, -1050.141557955106691 ], [ 2344.362037532922386, -1050.141557955106691 ], [ 2335.536477719197592, -1050.141557955106691 ], [ 2326.710917905472343, -1050.141557955106691 ], [ 2317.885358091747094, -1050.141557955106691 ], [ 2309.059798278022299, -1050.141557955106691 ], [ 2300.23423846429705, -1050.141557955106691 ], [ 2291.408678650571801, -1050.141557955106691 ], [ 2282.583118836847007, -1050.141557955106691 ], [ 2273.757559023121757, -1050.141557955106691 ], [ 2264.931999209396508, -1050.141557955106691 ], [ 2256.106439395671259, -1050.141557955106691 ], [ 2247.280879581946465, -1050.141557955106691 ], [ 2238.455319768221216, -1050.141557955106691 ], [ 2229.629759954495967, -1050.141557955106691 ], [ 2220.804200140771172, -1050.141557955106691 ], [ 2211.978640327045923, -1050.141557955106691 ], [ 2203.153080513320674, -1050.141557955106691 ], [ 2194.32752069959588, -1050.141557955106691 ], [ 2185.501960885870631, -1050.141557955106691 ], [ 2176.676401072145381, -1050.141557955106691 ], [ 2167.850841258420587, -1050.141557955106691 ], [ 2159.025281444695338, -1050.141557955106691 ], [ 2150.199721630970089, -1050.141557955106691 ], [ 2141.37416181724484, -1050.141557955106691 ], [ 2132.548602003520045, -1050.141557955106691 ], [ 2123.723042189794796, -1050.141557955106691 ], [ 2110.48470246920715, -1050.141557955106691 ], [ 2101.659142655481901, -1050.141557955106691 ], [ 2092.833582841757107, -1045.728778048244067 ], [ 2084.008023028031857, -1045.728778048244067 ], [ 2075.182463214306608, -1041.315998141381669 ], [ 2066.356903400581814, -1036.903218234519045 ], [ 2057.531343586856565, -1032.49043832765642 ], [ 2048.705783773131316, -1028.077658420794023 ], [ 2039.880223959406067, -1023.664878513931399 ], [ 2031.054664145681272, -1014.839318700206377 ], [ 2022.229104331956023, -1010.426538793343752 ], [ 2013.403544518230774, -1010.426538793343752 ], [ 2004.57798470450598, -1010.426538793343752 ], [ 1995.75242489078073, -1010.426538793343752 ], [ 1986.926865077055481, -1010.426538793343752 ], [ 1978.101305263330687, -1010.426538793343752 ], [ 1973.688525356467835, -1001.600978979618503 ], [ 1964.862965542743041, -992.775419165893481 ], [ 1956.037405729017792, -983.94985935216846 ], [ 1947.211845915292542, -979.537079445305835 ], [ 1938.386286101567293, -970.711519631580813 ], [ 1929.560726287842499, -966.298739724718189 ], [ 1920.73516647411725, -961.885959817855564 ], [ 1911.909606660392001, -957.47317991099294 ], [ 1903.084046846667206, -953.060400004130543 ], [ 1894.258487032941957, -948.647620097267918 ], [ 1885.432927219216708, -944.234840190405293 ], [ 1876.607367405491914, -944.234840190405293 ], [ 1867.781807591766665, -939.822060283542896 ], [ 1858.956247778041416, -935.409280376680272 ], [ 1850.130687964316166, -935.409280376680272 ], [ 1841.305128150591372, -935.409280376680272 ], [ 1836.89234824372852, -926.583720562955136 ], [ 1828.066788430003726, -922.170940656092625 ], [ 1828.066788430003726, -913.34538084236749 ], [ 1823.654008523140874, -904.519821028642355 ], [ 1823.654008523140874, -895.694261214917333 ], [ 1819.241228616278477, -886.868701401192197 ], [ 1819.241228616278477, -878.043141587467062 ], [ 1814.82844870941608, -864.804801866879416 ], [ 1810.415668802553228, -855.97924205315428 ], [ 1806.00288889569083, -847.153682239429145 ], [ 1806.00288889569083, -838.328122425704009 ], [ 1806.00288889569083, -829.502562611978988 ], [ 1801.590108988828433, -820.677002798253852 ], [ 1797.177329081965809, -811.851442984528717 ], [ 1797.177329081965809, -803.025883170803581 ], [ 1797.177329081965809, -794.20032335707856 ], [ 1797.177329081965809, -785.374763543353424 ], [ 1797.177329081965809, -776.549203729628289 ], [ 1797.177329081965809, -767.723643915903153 ], [ 1797.177329081965809, -758.898084102178018 ], [ 1797.177329081965809, -750.072524288452996 ], [ 1797.177329081965809, -741.246964474727861 ], [ 1801.590108988828433, -732.421404661002725 ], [ 1801.590108988828433, -723.59584484727759 ], [ 1806.00288889569083, -714.770285033552454 ], [ 1810.415668802553228, -705.944725219827433 ], [ 1814.82844870941608, -697.119165406102297 ], [ 1819.241228616278477, -688.293605592377162 ], [ 1823.654008523140874, -679.468045778652026 ], [ 1828.066788430003726, -670.642485964927005 ], [ 1832.479568336866123, -661.816926151201869 ], [ 1836.89234824372852, -652.991366337476734 ], [ 1841.305128150591372, -644.165806523751598 ], [ 1845.717908057453769, -635.340246710026463 ], [ 1850.130687964316166, -626.514686896301441 ], [ 1854.543467871179018, -613.276347175713681 ], [ 1858.956247778041416, -604.45078736198866 ], [ 1867.781807591766665, -595.625227548263524 ], [ 1872.194587498629062, -582.386887827675878 ], [ 1881.020147312354311, -582.386887827675878 ], [ 1885.432927219216708, -573.561328013950742 ], [ 1894.258487032941957, -560.322988293363096 ], [ 1903.084046846667206, -560.322988293363096 ], [ 1911.909606660392001, -560.322988293363096 ], [ 1925.147946380979647, -560.322988293363096 ], [ 1938.386286101567293, -560.322988293363096 ], [ 1951.62462582215494, -560.322988293363096 ], [ 1969.275745449605438, -560.322988293363096 ], [ 2000.165204797643128, -560.322988293363096 ], [ 2017.816324425093626, -560.322988293363096 ], [ 2026.64188423881842, -560.322988293363096 ], [ 2039.880223959406067, -564.735768200225607 ], [ 2048.705783773131316, -569.148548107088232 ], [ 2057.531343586856565, -577.974107920813253 ], [ 2066.356903400581814, -577.974107920813253 ], [ 2075.182463214306608, -582.386887827675878 ], [ 2084.008023028031857, -586.799667734538389 ], [ 2097.246362748619504, -586.799667734538389 ], [ 2106.071922562344753, -586.799667734538389 ], [ 2114.897482376069547, -591.212447641401013 ], [ 2123.723042189794796, -591.212447641401013 ], [ 2132.548602003520045, -591.212447641401013 ], [ 2141.37416181724484, -591.212447641401013 ], [ 2150.199721630970089, -591.212447641401013 ], [ 2159.025281444695338, -591.212447641401013 ], [ 2167.850841258420587, -591.212447641401013 ], [ 2176.676401072145381, -591.212447641401013 ], [ 2185.501960885870631, -591.212447641401013 ], [ 2194.32752069959588, -595.625227548263524 ], [ 2203.153080513320674, -595.625227548263524 ], [ 2211.978640327045923, -600.038007455126035 ], [ 2220.804200140771172, -600.038007455126035 ], [ 2229.629759954495967, -604.45078736198866 ], [ 2238.455319768221216, -608.86356726885117 ], [ 2247.280879581946465, -608.86356726885117 ], [ 2256.106439395671259, -613.276347175713681 ], [ 2264.931999209396508, -617.689127082576306 ], [ 2273.757559023121757, -617.689127082576306 ], [ 2286.995898743709404, -622.101906989438817 ], [ 2295.821458557434653, -622.101906989438817 ], [ 2304.647018371159447, -622.101906989438817 ], [ 2317.885358091747094, -626.514686896301441 ], [ 2326.710917905472343, -626.514686896301441 ], [ 2335.536477719197592, -626.514686896301441 ], [ 2344.362037532922386, -626.514686896301441 ], [ 2353.187597346647635, -626.514686896301441 ], [ 2362.013157160372884, -626.514686896301441 ], [ 2370.838716974098134, -630.927466803163952 ], [ 2379.664276787822928, -630.927466803163952 ], [ 2392.902616508410574, -630.927466803163952 ], [ 2401.728176322135823, -630.927466803163952 ], [ 2410.553736135861072, -630.927466803163952 ], [ 2419.379295949585867, -635.340246710026463 ], [ 2428.204855763311116, -635.340246710026463 ], [ 2437.030415577036365, -635.340246710026463 ], [ 2445.855975390761159, -635.340246710026463 ], [ 2454.681535204486408, -635.340246710026463 ], [ 2463.507095018211658, -635.340246710026463 ], [ 2472.332654831936907, -635.340246710026463 ], [ 2481.158214645661701, -639.753026616889088 ], [ 2489.98377445938695, -639.753026616889088 ], [ 2498.809334273112199, -644.165806523751598 ], [ 2507.634894086836994, -648.578586430614223 ], [ 2516.460453900562243, -648.578586430614223 ], [ 2525.286013714287492, -652.991366337476734 ], [ 2534.111573528012286, -652.991366337476734 ], [ 2542.937133341737535, -657.404146244339245 ], [ 2551.762693155462784, -661.816926151201869 ], [ 2560.588252969187579, -661.816926151201869 ], [ 2569.413812782912828, -661.816926151201869 ], [ 2582.652152503500474, -670.642485964927005 ], [ 2591.477712317225723, -670.642485964927005 ], [ 2600.303272130950972, -675.055265871789516 ], [ 2609.128831944675767, -679.468045778652026 ], [ 2613.541611851538619, -688.293605592377162 ], [ 2617.954391758401016, -697.119165406102297 ], [ 2622.367171665263413, -705.944725219827433 ], [ 2626.779951572126265, -714.770285033552454 ], [ 2626.779951572126265, -723.59584484727759 ], [ 2631.192731478988662, -732.421404661002725 ], [ 2635.605511385851059, -741.246964474727861 ], [ 2635.605511385851059, -750.072524288452996 ], [ 2635.605511385851059, -758.898084102178018 ], [ 2640.018291292713911, -767.723643915903153 ], [ 2640.018291292713911, -776.549203729628289 ], [ 2640.018291292713911, -785.374763543353424 ], [ 2640.018291292713911, -794.20032335707856 ], [ 2640.018291292713911, -803.025883170803581 ], [ 2640.018291292713911, -811.851442984528717 ], [ 2640.018291292713911, -820.677002798253852 ], [ 2640.018291292713911, -829.502562611978988 ], [ 2640.018291292713911, -842.740902332566634 ], [ 2640.018291292713911, -855.97924205315428 ], [ 2640.018291292713911, -864.804801866879416 ], [ 2640.018291292713911, -873.630361680604551 ], [ 2640.018291292713911, -882.455921494329573 ], [ 2640.018291292713911, -895.694261214917333 ], [ 2640.018291292713911, -908.932600935504979 ], [ 2640.018291292713911, -917.758160749230001 ], [ 2640.018291292713911, -926.583720562955136 ], [ 2640.018291292713911, -935.409280376680272 ], [ 2640.018291292713911, -944.234840190405293 ], [ 2640.018291292713911, -953.060400004130543 ], [ 2640.018291292713911, -961.885959817855564 ], [ 2640.018291292713911, -970.711519631580813 ], [ 2640.018291292713911, -979.537079445305835 ], [ 2640.018291292713911, -988.362639259030857 ], [ 2640.018291292713911, -997.188199072756106 ], [ 2640.018291292713911, -1006.013758886481128 ], [ 2640.018291292713911, -1014.839318700206377 ], [ 2640.018291292713911, -1023.664878513931399 ], [ 2640.018291292713911, -1032.49043832765642 ], [ 2640.018291292713911, -1041.315998141381669 ], [ 2640.018291292713911, -1050.141557955106691 ], [ 2640.018291292713911, -1058.967117768831713 ], [ 2640.018291292713911, -1067.792677582556962 ], [ 2640.018291292713911, -1076.618237396281984 ], [ 2640.018291292713911, -1089.85657711686963 ], [ 2640.018291292713911, -1098.682136930594879 ], [ 2644.431071199576309, -1107.507696744319901 ], [ 2648.843851106438706, -1116.33325655804515 ], [ 2648.843851106438706, -1125.158816371770172 ], [ 2648.843851106438706, -1133.984376185495194 ], [ 2653.256631013301558, -1142.809935999220443 ], [ 2653.256631013301558, -1151.635495812945464 ], [ 2653.256631013301558, -1160.461055626670486 ], [ 2653.256631013301558, -1169.286615440395735 ], [ 2653.256631013301558, -1178.112175254120757 ], [ 2644.431071199576309, -1186.937735067846006 ], [ 2635.605511385851059, -1195.763294881571028 ], [ 2626.779951572126265, -1204.58885469529605 ], [ 2617.954391758401016, -1213.414414509021299 ], [ 2617.954391758401016, -1222.23997432274632 ], [ 2613.541611851538619, -1231.06553413647157 ], [ 2613.541611851538619, -1239.891093950196591 ], [ 2613.541611851538619, -1248.716653763921613 ], [ 2609.128831944675767, -1257.542213577646862 ], [ 2609.128831944675767, -1266.367773391371884 ], [ 2609.128831944675767, -1275.193333205097133 ], [ 2600.303272130950972, -1284.018893018822155 ], [ 2600.303272130950972, -1292.844452832547177 ], [ 2591.477712317225723, -1301.670012646272426 ], [ 2587.064932410363326, -1310.495572459997447 ], [ 2582.652152503500474, -1319.321132273722469 ], [ 2582.652152503500474, -1328.146692087447718 ], [ 2573.826592689775225, -1336.97225190117274 ], [ 2569.413812782912828, -1345.797811714897989 ], [ 2560.588252969187579, -1354.623371528623011 ], [ 2551.762693155462784, -1359.036151435485635 ], [ 2542.937133341737535, -1363.448931342348033 ], [ 2534.111573528012286, -1363.448931342348033 ], [ 2525.286013714287492, -1363.448931342348033 ], [ 2512.047673993699846, -1372.274491156073282 ], [ 2503.222114179974596, -1372.274491156073282 ], [ 2481.158214645661701, -1381.100050969798303 ] ] ] } },
{ "type": "Feature", "properties": { "fid": 45 }, "geometry": { "type": "Polygon", "coordinates": [ [ [ 2887.133966077016794, -322.032873322785065 ], [ 2878.308406263291545, -322.032873322785065 ], [ 2873.895626356429148, -330.8584331365102 ], [ 2873.895626356429148, -339.683992950235336 ], [ 2869.48284644956675, -348.509552763960414 ], [ 2869.48284644956675, -357.33511257768555 ], [ 2860.657286635841501, -366.160672391410628 ], [ 2860.657286635841501, -374.986232205135764 ], [ 2856.244506728979104, -383.811792018860842 ], [ 2851.831726822116252, -397.050131739448545 ], [ 2847.418946915253855, -405.875691553173624 ], [ 2838.593387101528606, -414.701251366898759 ], [ 2834.180607194666209, -423.526811180623895 ], [ 2829.767827287803811, -432.352370994348917 ], [ 2829.767827287803811, -441.177930808074052 ], [ 2825.35504738094096, -450.003490621799187 ], [ 2825.35504738094096, -458.829050435524323 ], [ 2825.35504738094096, -467.654610249249458 ], [ 2825.35504738094096, -476.48017006297448 ], [ 2820.942267474078562, -485.305729876699615 ], [ 2812.116707660353313, -494.131289690424751 ], [ 2803.291147846628519, -502.956849504149886 ], [ 2794.46558803290327, -511.782409317875022 ], [ 2785.640028219178021, -520.607969131600044 ], [ 2785.640028219178021, -529.433528945325179 ], [ 2776.814468405452772, -538.259088759050314 ], [ 2776.814468405452772, -547.08464857277545 ], [ 2767.988908591727977, -551.497428479637961 ], [ 2759.163348778002728, -560.322988293363096 ], [ 2750.337788964277479, -569.148548107088232 ], [ 2741.512229150552685, -569.148548107088232 ], [ 2732.686669336827435, -573.561328013950742 ], [ 2723.861109523102186, -577.974107920813253 ], [ 2715.035549709377392, -586.799667734538389 ], [ 2706.209989895652143, -591.212447641401013 ], [ 2697.384430081926894, -595.625227548263524 ], [ 2697.384430081926894, -604.45078736198866 ], [ 2688.558870268202099, -613.276347175713681 ], [ 2688.558870268202099, -622.101906989438817 ], [ 2679.73331045447685, -630.927466803163952 ], [ 2670.907750640751601, -639.753026616889088 ], [ 2662.082190827026352, -644.165806523751598 ], [ 2653.256631013301558, -648.578586430614223 ], [ 2644.431071199576309, -648.578586430614223 ], [ 2635.605511385851059, -648.578586430614223 ], [ 2626.779951572126265, -648.578586430614223 ], [ 2617.954391758401016, -648.578586430614223 ], [ 2609.128831944675767, -648.578586430614223 ], [ 2600.303272130950972, -648.578586430614223 ], [ 2591.477712317225723, -648.578586430614223 ], [ 2582.652152503500474, -648.578586430614223 ], [ 2573.826592689775225, -648.578586430614223 ], [ 2565.001032876050431, -648.578586430614223 ], [ 2556.175473062325182, -644.165806523751598 ], [ 2547.349913248599933, -639.753026616889088 ], [ 2538.524353434875138, -635.340246710026463 ], [ 2529.698793621149889, -630.927466803163952 ], [ 2516.460453900562243, -626.514686896301441 ], [ 2503.222114179974596, -626.514686896301441 ], [ 2494.396554366249347, -622.101906989438817 ], [ 2485.570994552524553, -617.689127082576306 ], [ 2476.745434738799304, -613.276347175713681 ], [ 2463.507095018211658, -608.86356726885117 ], [ 2454.681535204486408, -604.45078736198866 ], [ 2441.443195483898762, -604.45078736198866 ], [ 2432.617635670173513, -600.038007455126035 ], [ 2423.792075856448719, -595.625227548263524 ], [ 2410.553736135861072, -595.625227548263524 ], [ 2401.728176322135823, -591.212447641401013 ], [ 2392.902616508410574, -591.212447641401013 ], [ 2384.07705669468578, -591.212447641401013 ], [ 2375.251496880960531, -591.212447641401013 ], [ 2366.425937067235282, -591.212447641401013 ], [ 2357.600377253510032, -591.212447641401013 ], [ 2348.774817439785238, -586.799667734538389 ], [ 2339.949257626059989, -586.799667734538389 ], [ 2331.12369781233474, -582.386887827675878 ], [ 2322.298137998609945, -577.974107920813253 ], [ 2313.472578184884696, -577.974107920813253 ], [ 2304.647018371159447, -573.561328013950742 ], [ 2295.821458557434653, -573.561328013950742 ], [ 2286.995898743709404, -569.148548107088232 ], [ 2278.170338929984155, -569.148548107088232 ], [ 2269.34477911625936, -569.148548107088232 ], [ 2260.519219302534111, -569.148548107088232 ], [ 2251.693659488808862, -569.148548107088232 ], [ 2242.868099675083613, -569.148548107088232 ], [ 2234.042539861358819, -569.148548107088232 ], [ 2225.216980047633569, -564.735768200225607 ], [ 2216.39142023390832, -564.735768200225607 ], [ 2207.565860420183526, -560.322988293363096 ], [ 2198.740300606458277, -560.322988293363096 ], [ 2189.914740792733028, -560.322988293363096 ], [ 2181.089180979008233, -560.322988293363096 ], [ 2172.263621165282984, -560.322988293363096 ], [ 2163.438061351557735, -560.322988293363096 ], [ 2154.612501537832486, -555.910208386500472 ], [ 2136.961381910382443, -555.910208386500472 ], [ 2128.135822096657193, -555.910208386500472 ], [ 2119.310262282932399, -551.497428479637961 ], [ 2110.48470246920715, -551.497428479637961 ], [ 2106.071922562344753, -542.671868665912825 ], [ 2106.071922562344753, -533.84630885218769 ], [ 2106.071922562344753, -525.020749038462668 ], [ 2106.071922562344753, -516.195189224737533 ], [ 2106.071922562344753, -507.369629411012397 ], [ 2106.071922562344753, -498.544069597287262 ], [ 2106.071922562344753, -489.71850978356224 ], [ 2106.071922562344753, -480.892949969837105 ], [ 2106.071922562344753, -472.067390156111969 ], [ 2106.071922562344753, -463.241830342386834 ], [ 2106.071922562344753, -454.416270528661698 ], [ 2106.071922562344753, -445.590710714936677 ], [ 2106.071922562344753, -436.765150901211541 ], [ 2106.071922562344753, -427.939591087486406 ], [ 2106.071922562344753, -419.114031273761327 ], [ 2106.071922562344753, -410.288471460036192 ], [ 2114.897482376069547, -405.875691553173624 ], [ 2128.135822096657193, -405.875691553173624 ], [ 2141.37416181724484, -405.875691553173624 ], [ 2150.199721630970089, -405.875691553173624 ], [ 2159.025281444695338, -405.875691553173624 ], [ 2167.850841258420587, -405.875691553173624 ], [ 2176.676401072145381, -405.875691553173624 ], [ 2185.501960885870631, -405.875691553173624 ], [ 2194.32752069959588, -397.050131739448545 ], [ 2203.153080513320674, -392.637351832585978 ], [ 2203.153080513320674, -383.811792018860842 ], [ 2203.153080513320674, -374.986232205135764 ], [ 2207.565860420183526, -366.160672391410628 ], [ 2211.978640327045923, -357.33511257768555 ], [ 2220.804200140771172, -357.33511257768555 ], [ 2229.629759954495967, -357.33511257768555 ], [ 2238.455319768221216, -357.33511257768555 ], [ 2247.280879581946465, -357.33511257768555 ], [ 2256.106439395671259, -357.33511257768555 ], [ 2264.931999209396508, -348.509552763960414 ], [ 2273.757559023121757, -344.096772857097847 ], [ 2282.583118836847007, -335.271213043372768 ], [ 2291.408678650571801, -330.8584331365102 ], [ 2300.23423846429705, -330.8584331365102 ], [ 2309.059798278022299, -326.445653229647633 ], [ 2317.885358091747094, -326.445653229647633 ], [ 2326.710917905472343, -326.445653229647633 ], [ 2335.536477719197592, -326.445653229647633 ], [ 2344.362037532922386, -326.445653229647633 ], [ 2353.187597346647635, -322.032873322785065 ], [ 2362.013157160372884, -317.620093415922554 ], [ 2370.838716974098134, -317.620093415922554 ], [ 2379.664276787822928, -317.620093415922554 ], [ 2388.489836601548177, -317.620093415922554 ], [ 2397.315396415273426, -317.620093415922554 ], [ 2406.14095622899822, -317.620093415922554 ], [ 2414.96651604272347, -322.032873322785065 ], [ 2423.792075856448719, -330.8584331365102 ], [ 2432.617635670173513, -335.271213043372768 ], [ 2441.443195483898762, -344.096772857097847 ], [ 2450.268755297624011, -344.096772857097847 ], [ 2454.681535204486408, -352.922332670822982 ], [ 2463.507095018211658, -361.747892484548061 ], [ 2472.332654831936907, -361.747892484548061 ], [ 2481.158214645661701, -361.747892484548061 ], [ 2489.98377445938695, -361.747892484548061 ], [ 2498.809334273112199, -361.747892484548061 ], [ 2507.634894086836994, -361.747892484548061 ], [ 2516.460453900562243, -361.747892484548061 ], [ 2525.286013714287492, -361.747892484548061 ], [ 2538.524353434875138, -361.747892484548061 ], [ 2547.349913248599933, -361.747892484548061 ], [ 2556.175473062325182, -361.747892484548061 ], [ 2569.413812782912828, -357.33511257768555 ], [ 2578.239372596638077, -357.33511257768555 ], [ 2587.064932410363326, -352.922332670822982 ], [ 2600.303272130950972, -348.509552763960414 ], [ 2609.128831944675767, -339.683992950235336 ], [ 2613.541611851538619, -330.8584331365102 ], [ 2622.367171665263413, -322.032873322785065 ], [ 2631.192731478988662, -317.620093415922554 ], [ 2635.605511385851059, -308.794533602197419 ], [ 2644.431071199576309, -304.381753695334851 ], [ 2653.256631013301558, -299.96897378847234 ], [ 2662.082190827026352, -299.96897378847234 ], [ 2675.320530547613998, -299.96897378847234 ], [ 2688.558870268202099, -299.96897378847234 ], [ 2701.797209988789746, -299.96897378847234 ], [ 2710.62276980251454, -299.96897378847234 ], [ 2719.448329616239789, -299.96897378847234 ], [ 2728.273889429965038, -299.96897378847234 ], [ 2737.099449243689833, -299.96897378847234 ], [ 2745.925009057415082, -299.96897378847234 ], [ 2754.750568871140331, -299.96897378847234 ], [ 2763.576128684865125, -304.381753695334851 ], [ 2772.401688498590374, -313.207313509059986 ], [ 2781.227248312315623, -313.207313509059986 ], [ 2790.052808126040873, -313.207313509059986 ], [ 2887.133966077016794, -322.032873322785065 ] ] ] } },
{ "type": "Feature", "properties": { "fid": 43 }, "geometry": { "type": "Polygon", "coordinates": [ [ [ 2644.431071199576309, -675.055265871789516 ], [ 2644.431071199576309, -688.293605592377162 ], [ 2644.431071199576309, -701.531945312964808 ], [ 2644.431071199576309, -710.357505126689944 ], [ 2644.431071199576309, -723.59584484727759 ], [ 2644.431071199576309, -732.421404661002725 ], [ 2644.431071199576309, -745.659744381590372 ], [ 2644.431071199576309, -758.898084102178018 ], [ 2644.431071199576309, -767.723643915903153 ], [ 2644.431071199576309, -776.549203729628289 ], [ 2644.431071199576309, -785.374763543353424 ], [ 2644.431071199576309, -794.20032335707856 ], [ 2644.431071199576309, -803.025883170803581 ], [ 2644.431071199576309, -811.851442984528717 ], [ 2644.431071199576309, -820.677002798253852 ], [ 2644.431071199576309, -829.502562611978988 ], [ 2644.431071199576309, -838.328122425704009 ], [ 2644.431071199576309, -847.153682239429145 ], [ 2644.431071199576309, -855.97924205315428 ], [ 2644.431071199576309, -864.804801866879416 ], [ 2644.431071199576309, -873.630361680604551 ], [ 2644.431071199576309, -882.455921494329573 ], [ 2644.431071199576309, -891.281481308054708 ], [ 2644.431071199576309, -900.107041121779844 ], [ 2644.431071199576309, -908.932600935504979 ], [ 2648.843851106438706, -917.758160749230001 ], [ 2653.256631013301558, -930.996500469817761 ], [ 2653.256631013301558, -939.822060283542896 ], [ 2653.256631013301558, -948.647620097267918 ], [ 2653.256631013301558, -957.47317991099294 ], [ 2653.256631013301558, -966.298739724718189 ], [ 2653.256631013301558, -975.124299538443211 ], [ 2653.256631013301558, -983.94985935216846 ], [ 2653.256631013301558, -992.775419165893481 ], [ 2653.256631013301558, -1001.600978979618503 ], [ 2653.256631013301558, -1010.426538793343752 ], [ 2653.256631013301558, -1019.252098607068774 ], [ 2653.256631013301558, -1028.077658420794023 ], [ 2653.256631013301558, -1036.903218234519045 ], [ 2653.256631013301558, -1045.728778048244067 ], [ 2653.256631013301558, -1054.554337861969316 ], [ 2653.256631013301558, -1063.379897675694338 ], [ 2653.256631013301558, -1072.205457489419587 ], [ 2653.256631013301558, -1081.031017303144608 ], [ 2653.256631013301558, -1089.85657711686963 ], [ 2653.256631013301558, -1098.682136930594879 ], [ 2653.256631013301558, -1107.507696744319901 ], [ 2653.256631013301558, -1116.33325655804515 ], [ 2653.256631013301558, -1125.158816371770172 ], [ 2653.256631013301558, -1133.984376185495194 ], [ 2662.082190827026352, -1138.397156092357818 ], [ 2670.907750640751601, -1138.397156092357818 ], [ 2684.146090361339247, -1125.158816371770172 ], [ 2692.971650175064497, -1120.746036464907547 ], [ 2701.797209988789746, -1111.920476651182526 ], [ 2710.62276980251454, -1107.507696744319901 ], [ 2719.448329616239789, -1098.682136930594879 ], [ 2728.273889429965038, -1089.85657711686963 ], [ 2737.099449243689833, -1085.443797210007233 ], [ 2745.925009057415082, -1081.031017303144608 ], [ 2754.750568871140331, -1076.618237396281984 ], [ 2763.576128684865125, -1076.618237396281984 ], [ 2772.401688498590374, -1072.205457489419587 ], [ 2781.227248312315623, -1067.792677582556962 ], [ 2790.052808126040873, -1063.379897675694338 ], [ 2798.878367939765667, -1058.967117768831713 ], [ 2807.703927753490916, -1054.554337861969316 ], [ 2816.529487567216165, -1045.728778048244067 ], [ 2825.35504738094096, -1045.728778048244067 ], [ 2829.767827287803811, -1036.903218234519045 ], [ 2838.593387101528606, -1032.49043832765642 ], [ 2847.418946915253855, -1028.077658420794023 ], [ 2856.244506728979104, -1023.664878513931399 ], [ 2865.070066542703898, -1023.664878513931399 ], [ 2873.895626356429148, -1014.839318700206377 ], [ 2882.721186170154397, -1014.839318700206377 ], [ 2891.546745983879646, -1010.426538793343752 ], [ 2900.37230579760444, -1006.013758886481128 ], [ 2909.197865611329689, -1006.013758886481128 ], [ 2918.023425425054938, -1001.600978979618503 ], [ 2926.848985238779733, -997.188199072756106 ], [ 2935.674545052504982, -992.775419165893481 ], [ 2944.500104866230231, -988.362639259030857 ], [ 2953.325664679955025, -983.94985935216846 ], [ 2962.151224493680274, -979.537079445305835 ], [ 2970.976784307405524, -975.124299538443211 ], [ 2979.802344121130318, -970.711519631580813 ], [ 2988.627903934855567, -966.298739724718189 ], [ 2993.040683841718419, -957.47317991099294 ], [ 3001.866243655443213, -953.060400004130543 ], [ 3010.691803469168462, -944.234840190405293 ], [ 3019.517363282893712, -935.409280376680272 ], [ 3028.342923096618506, -922.170940656092625 ], [ 3037.168482910343755, -913.34538084236749 ], [ 3045.994042724069004, -904.519821028642355 ], [ 3054.819602537793799, -895.694261214917333 ], [ 3063.645162351519048, -886.868701401192197 ], [ 3072.470722165244297, -882.455921494329573 ], [ 3081.296281978969091, -878.043141587467062 ], [ 3090.12184179269434, -869.217581773741927 ], [ 3098.947401606419589, -864.804801866879416 ], [ 3107.772961420144838, -855.97924205315428 ], [ 3116.598521233869633, -851.566462146291769 ], [ 3121.011301140732485, -842.740902332566634 ], [ 3129.836860954457279, -838.328122425704009 ], [ 3134.249640861320131, -829.502562611978988 ], [ 3143.075200675044925, -829.502562611978988 ], [ 3147.487980581907777, -820.677002798253852 ], [ 3156.313540395632572, -816.264222891391228 ], [ 3165.139100209357821, -807.438663077666206 ], [ 3173.96466002308307, -798.613103263941071 ], [ 3182.790219836807864, -794.20032335707856 ], [ 3187.202999743670716, -785.374763543353424 ], [ 3196.028559557395965, -780.9619836364908 ], [ 3204.85411937112076, -772.136423822765778 ], [ 3213.679679184846009, -767.723643915903153 ], [ 3218.092459091708406, -758.898084102178018 ], [ 3226.918018905433655, -750.072524288452996 ], [ 3235.743578719158904, -741.246964474727861 ], [ 3244.569138532883699, -732.421404661002725 ], [ 3253.394698346608948, -723.59584484727759 ], [ 3262.220258160334197, -714.770285033552454 ], [ 3271.045817974058991, -705.944725219827433 ], [ 3279.87137778778424, -697.119165406102297 ], [ 3284.284157694646638, -688.293605592377162 ], [ 3293.109717508371887, -679.468045778652026 ], [ 3297.522497415234739, -670.642485964927005 ], [ 3301.935277322097136, -661.816926151201869 ], [ 3310.760837135822385, -657.404146244339245 ], [ 3310.760837135822385, -648.578586430614223 ], [ 3315.173617042684782, -639.753026616889088 ], [ 3323.999176856410031, -630.927466803163952 ], [ 3328.411956763272428, -622.101906989438817 ], [ 3337.237516576997677, -617.689127082576306 ], [ 3341.650296483860075, -608.86356726885117 ], [ 3346.063076390722472, -600.038007455126035 ], [ 3346.063076390722472, -591.212447641401013 ], [ 3332.824736670134826, -577.974107920813253 ], [ 3319.586396949547179, -577.974107920813253 ], [ 3306.348057228959533, -573.561328013950742 ], [ 3297.522497415234739, -569.148548107088232 ], [ 3288.696937601509489, -564.735768200225607 ], [ 3279.87137778778424, -560.322988293363096 ], [ 3266.633038067196594, -555.910208386500472 ], [ 3257.807478253471345, -551.497428479637961 ], [ 3248.981918439746551, -551.497428479637961 ], [ 3240.156358626021301, -547.08464857277545 ], [ 3231.330798812296052, -547.08464857277545 ], [ 3226.918018905433655, -538.259088759050314 ], [ 3218.092459091708406, -533.84630885218769 ], [ 3204.85411937112076, -529.433528945325179 ], [ 3191.615779650533113, -520.607969131600044 ], [ 3182.790219836807864, -516.195189224737533 ], [ 3173.96466002308307, -507.369629411012397 ], [ 3165.139100209357821, -498.544069597287262 ], [ 3156.313540395632572, -489.71850978356224 ], [ 3147.487980581907777, -485.305729876699615 ], [ 3134.249640861320131, -476.48017006297448 ], [ 3121.011301140732485, -472.067390156111969 ], [ 3112.185741327007236, -467.654610249249458 ], [ 3103.360181513281987, -467.654610249249458 ], [ 3094.534621699557192, -463.241830342386834 ], [ 3085.709061885831943, -458.829050435524323 ], [ 3076.883502072106694, -458.829050435524323 ], [ 3068.057942258381445, -454.416270528661698 ], [ 3059.23238244465665, -450.003490621799187 ], [ 3054.819602537793799, -441.177930808074052 ], [ 3045.994042724069004, -436.765150901211541 ], [ 3037.168482910343755, -427.939591087486406 ], [ 3032.755703003481358, -419.114031273761327 ], [ 3028.342923096618506, -410.288471460036192 ], [ 3019.517363282893712, -405.875691553173624 ], [ 3010.691803469168462, -401.462911646311113 ], [ 3006.279023562306065, -392.637351832585978 ], [ 2997.453463748580816, -388.22457192572341 ], [ 2988.627903934855567, -383.811792018860842 ], [ 2979.802344121130318, -379.399012111998331 ], [ 2970.976784307405524, -374.986232205135764 ], [ 2962.151224493680274, -370.573452298273196 ], [ 2953.325664679955025, -366.160672391410628 ], [ 2944.500104866230231, -361.747892484548061 ], [ 2935.674545052504982, -361.747892484548061 ], [ 2926.848985238779733, -357.33511257768555 ], [ 2918.023425425054938, -352.922332670822982 ], [ 2909.197865611329689, -348.509552763960414 ], [ 2900.37230579760444, -344.096772857097847 ], [ 2891.546745983879646, -344.096772857097847 ], [ 2882.721186170154397, -344.096772857097847 ], [ 2873.895626356429148, -352.922332670822982 ], [ 2873.895626356429148, -361.747892484548061 ], [ 2869.48284644956675, -370.573452298273196 ], [ 2860.657286635841501, -374.986232205135764 ], [ 2856.244506728979104, -383.811792018860842 ], [ 2851.831726822116252, -392.637351832585978 ], [ 2851.831726822116252, -401.462911646311113 ], [ 2847.418946915253855, -410.288471460036192 ], [ 2843.006167008391458, -419.114031273761327 ], [ 2843.006167008391458, -427.939591087486406 ], [ 2843.006167008391458, -436.765150901211541 ], [ 2843.006167008391458, -445.590710714936677 ], [ 2843.006167008391458, -454.416270528661698 ], [ 2843.006167008391458, -463.241830342386834 ], [ 2843.006167008391458, -472.067390156111969 ], [ 2843.006167008391458, -480.892949969837105 ], [ 2843.006167008391458, -489.71850978356224 ], [ 2843.006167008391458, -498.544069597287262 ], [ 2834.180607194666209, -507.369629411012397 ], [ 2825.35504738094096, -516.195189224737533 ], [ 2825.35504738094096, -525.020749038462668 ], [ 2820.942267474078562, -533.84630885218769 ], [ 2812.116707660353313, -538.259088759050314 ], [ 2803.291147846628519, -542.671868665912825 ], [ 2798.878367939765667, -551.497428479637961 ], [ 2790.052808126040873, -555.910208386500472 ], [ 2781.227248312315623, -560.322988293363096 ], [ 2772.401688498590374, -564.735768200225607 ], [ 2763.576128684865125, -569.148548107088232 ], [ 2754.750568871140331, -569.148548107088232 ], [ 2745.925009057415082, -577.974107920813253 ], [ 2737.099449243689833, -582.386887827675878 ], [ 2728.273889429965038, -586.799667734538389 ], [ 2719.448329616239789, -591.212447641401013 ], [ 2710.62276980251454, -595.625227548263524 ], [ 2701.797209988789746, -600.038007455126035 ], [ 2697.384430081926894, -608.86356726885117 ], [ 2688.558870268202099, -613.276347175713681 ], [ 2679.73331045447685, -617.689127082576306 ], [ 2670.907750640751601, -626.514686896301441 ], [ 2662.082190827026352, -630.927466803163952 ], [ 2653.256631013301558, -639.753026616889088 ], [ 2648.843851106438706, -648.578586430614223 ], [ 2640.018291292713911, -652.991366337476734 ], [ 2631.192731478988662, -657.404146244339245 ], [ 2622.367171665263413, -661.816926151201869 ], [ 2613.541611851538619, -661.816926151201869 ], [ 2604.71605203781337, -670.642485964927005 ], [ 2613.541611851538619, -675.055265871789516 ], [ 2622.367171665263413, -679.468045778652026 ], [ 2631.192731478988662, -679.468045778652026 ], [ 2640.018291292713911, -683.880825685514651 ], [ 2653.256631013301558, -683.880825685514651 ], [ 2666.494970733889204, -683.880825685514651 ], [ 2675.320530547613998, -683.880825685514651 ], [ 2684.146090361339247, -683.880825685514651 ], [ 2692.971650175064497, -683.880825685514651 ], [ 2684.146090361339247, -683.880825685514651 ], [ 2675.320530547613998, -683.880825685514651 ], [ 2666.494970733889204, -683.880825685514651 ], [ 2644.431071199576309, -675.055265871789516 ] ] ] } }
]
}
